{"type": "FeatureCollection", "features": [ {"type": "Feature", "properties": {"norad_id": 37834, "name": "INTELSAT 18 (IS-18)", "group": "intelsat", "lat": 0.01576925153780023, "lon": -11.931290733673446, "alt_km": 35784.56180176614, "timestamp": "2025-12-12T05:47:28.439783+00:00", "meta": {"OBJECT_NAME": "INTELSAT 18 (IS-18)", "OBJECT_ID": "2011-056A", "EPOCH": "2025-12-11T19:30:10.636704", "MEAN_MOTION": 1.00271439, "ECCENTRICITY": 0.00019117, "INCLINATION": 0.0135, "RA_OF_ASC_NODE": 297.3081, "ARG_OF_PERICENTER": 332.1304, "MEAN_ANOMALY": 283.8677, "EPHEMERIS_TYPE": 0, "CLASSIFICATION_TYPE": "U", "NORAD_CAT_ID": 37834, "ELEMENT_SET_NO": 999, "REV_AT_EPOCH": 5193, "BSTAR": 0, "MEAN_MOTION_DOT": 6.1e-07, "MEAN_MOTION_DDOT": 0}, "tle": {"line1": "1 37834U 11056A   25345.81262311  .00000061  00000+0  00000+0 0  9996", "line2": "2 37834   0.0135 297.3081 0001911 332.1304 283.8677  1.00271439 51930"}}, "geometry": {"type": "Point", "coordinates": [-11.931290733673446, 0.01576925153780023]}}, {"type": "Feature", "properties": {"norad_id": 38098, "name": "INTELSAT 22 (IS-22)", "group": "intelsat", "lat": -0.018360831120897272, "lon": -119.83415087935144, "alt_km": 35779.65525676338, "timestamp": "2025-12-12T05:47:28.439795+00:00", "meta": {"OBJECT_NAME": "INTELSAT 22 (IS-22)", "OBJECT_ID": "2012-011A", "EPOCH": "2025-12-11T22:24:53.902080", "MEAN_MOTION": 1.00271194, "ECCENTRICITY": 0.00017362, "INCLINATION": 0.0016, "RA_OF_ASC_NODE": 356.1122, "ARG_OF_PERICENTER": 270.3163, "MEAN_ANOMALY": 222.8053, "EPHEMERIS_TYPE": 0, "CLASSIFICATION_TYPE": "U", "NORAD_CAT_ID": 38098, "ELEMENT_SET_NO": 999, "REV_AT_EPOCH": 531, "BSTAR": 0, "MEAN_MOTION_DOT": -5e-07, "MEAN_MOTION_DDOT": 0}, "tle": {"line1": "1 38098U 12011A   25345.93395720 -.00000050  00000+0  00000+0 0  9994", "line2": "2 38098   0.0016 356.1122 0001736 270.3163 222.8053  1.00271194  5312"}}, "geometry": {"type": "Point", "coordinates": [-119.83415087935144, -0.018360831120897272]}}, {"type": "Feature", "properties": {"norad_id": 38356, "name": "INTELSAT 19 (IS-19)", "group": "intelsat", "lat": -0.0048806724335384005, "lon": -25.900903368233134, "alt_km": 35779.762840773205, "timestamp": "2025-12-12T05:47:28.439806+00:00", "meta": {"OBJECT_NAME": "INTELSAT 19 (IS-19)", "OBJECT_ID": "2012-030A", "EPOCH": "2025-12-11T21:08:53.681568", "MEAN_MOTION": 1.00272276, "ECCENTRICITY": 0.00034386, "INCLINATION": 0.0092, "RA_OF_ASC_NODE": 350.6258, "ARG_OF_PERICENTER": 278.6694, "MEAN_ANOMALY": 294.773, "EPHEMERIS_TYPE": 0, "CLASSIFICATION_TYPE": "U", "NORAD_CAT_ID": 38356, "ELEMENT_SET_NO": 999, "REV_AT_EPOCH": 4857, "BSTAR": 0, "MEAN_MOTION_DOT": -4.8e-07, "MEAN_MOTION_DDOT": 0}, "tle": {"line1": "1 38356U 12030A   25345.88117687 -.00000048  00000+0  00000+0 0  9997", "line2": "2 38356   0.0092 350.6258 0003438 278.6694 294.7730  1.00272276 48570"}}, "geometry": {"type": "Point", "coordinates": [-25.900903368233134, -0.0048806724335384005]}}, {"type": "Feature", "properties": {"norad_id": 38740, "name": "INTELSAT 20 (IS-20)", "group": "intelsat", "lat": -0.0004568780065819615, "lon": -123.41520271893248, "alt_km": 35779.4710273568, "timestamp": "2025-12-12T05:47:28.439819+00:00", "meta": {"OBJECT_NAME": "INTELSAT 20 (IS-20)", "OBJECT_ID": "2012-043A", "EPOCH": "2025-12-11T19:58:55.649856", "MEAN_MOTION": 1.00270334, "ECCENTRICITY": 0.00027081, "INCLINATION": 0.0053, "RA_OF_ASC_NODE": 83.8279, "ARG_OF_PERICENTER": 100.6018, "MEAN_ANOMALY": 264.5986, "EPHEMERIS_TYPE": 0, "CLASSIFICATION_TYPE": "U", "NORAD_CAT_ID": 38740, "ELEMENT_SET_NO": 999, "REV_AT_EPOCH": 4887, "BSTAR": 0, "MEAN_MOTION_DOT": -1.6e-07, "MEAN_MOTION_DDOT": 0}, "tle": {"line1": "1 38740U 12043A   25345.83258854 -.00000016  00000+0  00000+0 0  9990", "line2": "2 38740   0.0053  83.8279 0002708 100.6018 264.5986  1.00270334 48879"}}, "geometry": {"type": "Point", "coordinates": [-123.41520271893248, -0.0004568780065819615]}}, {"type": "Feature", "properties": {"norad_id": 38749, "name": "INTELSAT 21 (IS-21)", "group": "intelsat", "lat": 0.02431846077649988, "lon": 110.04391323253948, "alt_km": 35792.51635987233, "timestamp": "2025-12-12T05:47:28.439830+00:00", "meta": {"OBJECT_NAME": "INTELSAT 21 (IS-21)", "OBJECT_ID": "2012-045A", "EPOCH": "2025-12-11T23:30:27.159264", "MEAN_MOTION": 1.00272538, "ECCENTRICITY": 0.00018585, "INCLINATION": 0.0232, "RA_OF_ASC_NODE": 63.452, "ARG_OF_PERICENTER": 193.8598, "MEAN_ANOMALY": 118.2349, "EPHEMERIS_TYPE": 0, "CLASSIFICATION_TYPE": "U", "NORAD_CAT_ID": 38749, "ELEMENT_SET_NO": 999, "REV_AT_EPOCH": 4864, "BSTAR": 0, "MEAN_MOTION_DOT": -2.76e-06, "MEAN_MOTION_DDOT": 0}, "tle": {"line1": "1 38749U 12045A   25345.97948101 -.00000276  00000+0  00000+0 0  9995", "line2": "2 38749   0.0232  63.4520 0001858 193.8598 118.2349  1.00272538 48643"}}, "geometry": {"type": "Point", "coordinates": [110.04391323253948, 0.02431846077649988]}}, {"type": "Feature", "properties": {"norad_id": 38867, "name": "INTELSAT 23 (IS-23)", "group": "intelsat", "lat": 0.026637103204589386, "lon": 115.04663299876786, "alt_km": 35787.283576776535, "timestamp": "2025-12-12T05:47:28.439842+00:00", "meta": {"OBJECT_NAME": "INTELSAT 23 (IS-23)", "OBJECT_ID": "2012-057A", "EPOCH": "2025-12-11T23:31:57.016128", "MEAN_MOTION": 1.00272951, "ECCENTRICITY": 0.00010728, "INCLINATION": 0.0429, "RA_OF_ASC_NODE": 96.7078, "ARG_OF_PERICENTER": 127.4767, "MEAN_ANOMALY": 156.74, "EPHEMERIS_TYPE": 0, "CLASSIFICATION_TYPE": "U", "NORAD_CAT_ID": 38867, "ELEMENT_SET_NO": 999, "REV_AT_EPOCH": 4807, "BSTAR": 0, "MEAN_MOTION_DOT": -2.76e-06, "MEAN_MOTION_DDOT": 0}, "tle": {"line1": "1 38867U 12057A   25345.98052102 -.00000276  00000+0  00000+0 0  9997", "line2": "2 38867   0.0429  96.7078 0001072 127.4767 156.7400  1.00272951 48079"}}, "geometry": {"type": "Point", "coordinates": [115.04663299876786, 0.026637103204589386]}}, {"type": "Feature", "properties": {"norad_id": 39360, "name": "FM-6", "group": "intelsat", "lat": 0.0066143577335604845, "lon": 51.87977359107727, "alt_km": 35793.0515731064, "timestamp": "2025-12-12T05:47:28.439853+00:00", "meta": {"OBJECT_NAME": "FM-6", "OBJECT_ID": "2013-058A", "EPOCH": "2025-12-11T23:13:51.248928", "MEAN_MOTION": 1.00272566, "ECCENTRICITY": 0.00029422, "INCLINATION": 0.0106, "RA_OF_ASC_NODE": 73.8045, "ARG_OF_PERICENTER": 103.619, "MEAN_ANOMALY": 135.8137, "EPHEMERIS_TYPE": 0, "CLASSIFICATION_TYPE": "U", "NORAD_CAT_ID": 39360, "ELEMENT_SET_NO": 999, "REV_AT_EPOCH": 4419, "BSTAR": 0, "MEAN_MOTION_DOT": -8e-08, "MEAN_MOTION_DDOT": 0}, "tle": {"line1": "1 39360U 13058A   25345.96795427 -.00000008  00000+0  00000+0 0  9993", "line2": "2 39360   0.0106  73.8045 0002942 103.6190 135.8137  1.00272566 44199"}}, "geometry": {"type": "Point", "coordinates": [51.87977359107727, 0.0066143577335604845]}}, {"type": "Feature", "properties": {"norad_id": 40271, "name": "INTELSAT 30 (IS-30)", "group": "intelsat", "lat": 0.0254692506681164, "lon": 72.98472672600717, "alt_km": 35779.93731942704, "timestamp": "2025-12-12T05:47:28.439865+00:00", "meta": {"OBJECT_NAME": "INTELSAT 30 (IS-30)", "OBJECT_ID": "2014-062A", "EPOCH": "2025-12-11T08:43:38.851968", "MEAN_MOTION": 1.00271845, "ECCENTRICITY": 0.00015432, "INCLINATION": 0.0188, "RA_OF_ASC_NODE": 35.8315, "ARG_OF_PERICENTER": 56.6474, "MEAN_ANOMALY": 23.6951, "EPHEMERIS_TYPE": 0, "CLASSIFICATION_TYPE": "U", "NORAD_CAT_ID": 40271, "ELEMENT_SET_NO": 999, "REV_AT_EPOCH": 490, "BSTAR": 0, "MEAN_MOTION_DOT": -1.44e-06, "MEAN_MOTION_DDOT": 0}, "tle": {"line1": "1 40271U 14062A   25345.36364412 -.00000144  00000+0  00000+0 0  9993", "line2": "2 40271   0.0188  35.8315 0001543  56.6474  23.6951  1.00271845  4900"}}, "geometry": {"type": "Point", "coordinates": [72.98472672600717, 0.0254692506681164]}}, {"type": "Feature", "properties": {"norad_id": 40333, "name": "DIRECTV 14", "group": "intelsat", "lat": 0.031253876703667006, "lon": 68.84278939979927, "alt_km": 35786.52381087037, "timestamp": "2025-12-12T05:47:28.439876+00:00", "meta": {"OBJECT_NAME": "DIRECTV 14", "OBJECT_ID": "2014-078B", "EPOCH": "2025-12-11T14:45:07.933824", "MEAN_MOTION": 1.00273916, "ECCENTRICITY": 4.131e-05, "INCLINATION": 0.0158, "RA_OF_ASC_NODE": 316.5152, "ARG_OF_PERICENTER": 238.3752, "MEAN_ANOMALY": 7.7536, "EPHEMERIS_TYPE": 0, "CLASSIFICATION_TYPE": "U", "NORAD_CAT_ID": 40333, "ELEMENT_SET_NO": 999, "REV_AT_EPOCH": 4016, "BSTAR": 0, "MEAN_MOTION_DOT": -1.18e-06, "MEAN_MOTION_DDOT": 0}, "tle": {"line1": "1 40333U 14078B   25345.61467516 -.00000118  00000+0  00000+0 0  9997", "line2": "2 40333   0.0158 316.5152 0000413 238.3752   7.7536  1.00273916 40168"}}, "geometry": {"type": "Point", "coordinates": [68.84278939979927, 0.031253876703667006]}}, {"type": "Feature", "properties": {"norad_id": 40663, "name": "DIRECTV 15", "group": "intelsat", "lat": 0.007001400222553489, "lon": 65.18920032087811, "alt_km": 35787.05144550526, "timestamp": "2025-12-12T05:47:28.439888+00:00", "meta": {"OBJECT_NAME": "DIRECTV 15", "OBJECT_ID": "2015-026A", "EPOCH": "2025-12-11T21:34:58.683648", "MEAN_MOTION": 1.00271604, "ECCENTRICITY": 2.198e-05, "INCLINATION": 0.0402, "RA_OF_ASC_NODE": 85.3093, "ARG_OF_PERICENTER": 150.3651, "MEAN_ANOMALY": 66.0596, "EPHEMERIS_TYPE": 0, "CLASSIFICATION_TYPE": "U", "NORAD_CAT_ID": 40663, "ELEMENT_SET_NO": 999, "REV_AT_EPOCH": 3858, "BSTAR": 0, "MEAN_MOTION_DOT": -9.4e-07, "MEAN_MOTION_DDOT": 0}, "tle": {"line1": "1 40663U 15026A   25345.89929032 -.00000094  00000+0  00000+0 0  9996", "line2": "2 40663   0.0402  85.3093 0000219 150.3651  66.0596  1.00271604 38585"}}, "geometry": {"type": "Point", "coordinates": [65.18920032087811, 0.007001400222553489]}}]}